{
    "links": {
        "self": "http://www.neowsapp.com/rest/v1/neo/3610031?api_key=iIulBulltgU6a56xZRHN4H3l9WmuAYTsLGpBGhQ2"
    },
    "id": "3610031",
    "neo_reference_id": "3610031",
    "name": "(2012 TH53)",
    "designation": "2012 TH53",
    "nasa_jpl_url": "http://ssd.jpl.nasa.gov/sbdb.cgi?sstr=3610031",
    "absolute_magnitude_h": 25.1,
    "estimated_diameter": {
        "kilometers": {
            "estimated_diameter_min": 0.0253837029,
            "estimated_diameter_max": 0.0567596853
        },
        "meters": {
            "estimated_diameter_min": 25.3837029364,
            "estimated_diameter_max": 56.7596852866
        },
        "miles": {
            "estimated_diameter_min": 0.0157726969,
            "estimated_diameter_max": 0.0352688224
        },
        "feet": {
            "estimated_diameter_min": 83.279867942,
            "estimated_diameter_max": 186.2194458756
        }
    },
    "is_potentially_hazardous_asteroid": false,
    "close_approach_data": [
        {
            "close_approach_date": "2012-09-28",
            "close_approach_date_full": "2012-Sep-28 18:29",
            "epoch_date_close_approach": 1348856940000,
            "relative_velocity": {
                "kilometers_per_second": "9.5571485753",
                "kilometers_per_hour": "34405.7348712139",
                "miles_per_hour": "21378.3856481718"
            },
            "miss_distance": {
                "astronomical": "0.0429374322",
                "lunar": "16.7026611258",
                "kilometers": "6423348.400389414",
                "miles": "3991283.6177213532"
            },
            "orbiting_body": "Earth"
        }
    ],
    "orbital_data": {
        "orbit_id": "7",
        "orbit_determination_date": "2017-04-06 08:48:42",
        "first_observation_date": "2012-10-09",
        "last_observation_date": "2012-10-16",
        "data_arc_in_days": 7,
        "observations_used": 24,
        "orbit_uncertainty": "8",
        "minimum_orbit_intersection": ".0335491",
        "jupiter_tisserand_invariant": "3.861",
        "epoch_osculation": "2456210.5",
        "eccentricity": ".4653263015811719",
        "semi_major_axis": "1.848438620495564",
        "inclination": "7.644461514750503",
        "ascending_node_longitude": "13.06815428946653",
        "orbital_period": "917.9224204679836",
        "perihelion_distance": ".9883115135205599",
        "perihelion_argument": "321.766609383755",
        "aphelion_distance": "2.708565727470569",
        "perihelion_time": "2456174.198258033486",
        "mean_anomaly": "14.23718041583762",
        "mean_motion": ".3921900064457098",
        "equinox": "J2000",
        "orbit_class": {
            "orbit_class_type": "APO",
            "orbit_class_description": "Near-Earth asteroid orbits which cross the Earth’s orbit similar to that of 1862 Apollo",
            "orbit_class_range": "a (semi-major axis) > 1.0 AU; q (perihelion) < 1.017 AU"
        }
    },
    "is_sentry_object": false
}